[{"OBJECT_NAME":"SDA_1680","OBJECT_ID":"2025-230S","EPOCH":"2026-03-09T23:22:27.829344","MEAN_MOTION":13.85216593,"ECCENTRICITY":0.00048476,"INCLINATION":81.3005,"RA_OF_ASC_NODE":303.6494,"ARG_OF_PERICENTER":103.2201,"MEAN_ANOMALY":256.9497,"EPHEMERIS_TYPE":0,"CLASSIFICATION_TYPE":"U","NORAD_CAT_ID":65990,"ELEMENT_SET_NO":999,"REV_AT_EPOCH":2008,"BSTAR":0.00016774776,"MEAN_MOTION_DOT":2.02e-6,"MEAN_MOTION_DDOT":0},{"OBJECT_NAME":"THORAD DELTA 1 DEB","OBJECT_ID":"1974-089DL","EPOCH":"2026-03-09T13:52:51.288096","MEAN_MOTION":13.46801476,"ECCENTRICITY":0.0202156,"INCLINATION":100.8782,"RA_OF_ASC_NODE":106.7696,"ARG_OF_PERICENTER":85.9738,"MEAN_ANOMALY":67.112,"EPHEMERIS_TYPE":0,"CLASSIFICATION_TYPE":"U","NORAD_CAT_ID":8784,"ELEMENT_SET_NO":999,"REV_AT_EPOCH":51895,"BSTAR":0.019065,"MEAN_MOTION_DOT":0.0001303,"MEAN_MOTION_DDOT":0}]
